{"type": "FeatureCollection", "features": [ {"type": "Feature", "properties": {"norad_id": 66630, "name": "STARLINK-35949", "group": "last-30-days", "lat": 6.180983509818027, "lon": 157.3806747920676, "alt_km": 418.7671955733613, "timestamp": "2025-12-19T22:41:51.095253+00:00", "meta": {"OBJECT_NAME": "STARLINK-35949", "OBJECT_ID": "2025-271P", "EPOCH": "2025-12-19T07:10:57.239904", "MEAN_MOTION": 15.4928529, "ECCENTRICITY": 3.52e-05, "INCLINATION": 53.1593, "RA_OF_ASC_NODE": 155.8154, "ARG_OF_PERICENTER": 144.7691, "MEAN_ANOMALY": 215.3341, "EPHEMERIS_TYPE": 0, "CLASSIFICATION_TYPE": "U", "NORAD_CAT_ID": 66630, "ELEMENT_SET_NO": 999, "REV_AT_EPOCH": 522, "BSTAR": 0.0013858, "MEAN_MOTION_DOT": 0.00077326, "MEAN_MOTION_DDOT": 0}, "tle": {"line1": "1 66630U 25271P   25353.29927361  .00077326  00000+0  13858-2 0  9996", "line2": "2 66630  53.1593 155.8154 0000352 144.7691 215.3341 15.49285290  5223"}}, "geometry": {"type": "Point", "coordinates": [157.3806747920676, 6.180983509818027]}}, {"type": "Feature", "properties": {"norad_id": 66631, "name": "STARLINK-35965", "group": "last-30-days", "lat": 4.462263558082407, "lon": 156.08557411472844, "alt_km": 428.1137654949498, "timestamp": "2025-12-19T22:41:51.095263+00:00", "meta": {"OBJECT_NAME": "STARLINK-35965", "OBJECT_ID": "2025-271Q", "EPOCH": "2025-12-19T18:00:00.998784", "MEAN_MOTION": 15.46950379, "ECCENTRICITY": 0.0001214, "INCLINATION": 53.159, "RA_OF_ASC_NODE": 153.6635, "ARG_OF_PERICENTER": 75.7178, "MEAN_ANOMALY": 279.6895, "EPHEMERIS_TYPE": 0, "CLASSIFICATION_TYPE": "U", "NORAD_CAT_ID": 66631, "ELEMENT_SET_NO": 999, "REV_AT_EPOCH": 537, "BSTAR": -0.042002, "MEAN_MOTION_DOT": -0.01928555, "MEAN_MOTION_DDOT": 0}, "tle": {"line1": "1 66631U 25271Q   25353.75001156 -.01928555  00000+0 -42002-1 0  9997", "line2": "2 66631  53.1590 153.6635 0001214  75.7178 279.6895 15.46950379  5379"}}, "geometry": {"type": "Point", "coordinates": [156.08557411472844, 4.462263558082407]}}, {"type": "Feature", "properties": {"norad_id": 66632, "name": "STARLINK-35973", "group": "last-30-days", "lat": -10.282280084185562, "lon": -19.109967935649067, "alt_km": 449.54835276438644, "timestamp": "2025-12-19T22:41:51.095275+00:00", "meta": {"OBJECT_NAME": "STARLINK-35973", "OBJECT_ID": "2025-271R", "EPOCH": "2025-12-19T17:11:23.683776", "MEAN_MOTION": 15.39629734, "ECCENTRICITY": 7.17e-05, "INCLINATION": 53.1599, "RA_OF_ASC_NODE": 154.1548, "ARG_OF_PERICENTER": 71.7861, "MEAN_ANOMALY": 288.3222, "EPHEMERIS_TYPE": 0, "CLASSIFICATION_TYPE": "U", "NORAD_CAT_ID": 66632, "ELEMENT_SET_NO": 999, "REV_AT_EPOCH": 524, "BSTAR": 0.00066216, "MEAN_MOTION_DOT": 0.00026186, "MEAN_MOTION_DDOT": 0}, "tle": {"line1": "1 66632U 25271R   25353.71624634  .00026186  00000+0  66216-3 0  9997", "line2": "2 66632  53.1599 154.1548 0000717  71.7861 288.3222 15.39629734  5247"}}, "geometry": {"type": "Point", "coordinates": [-19.109967935649067, -10.282280084185562]}}, {"type": "Feature", "properties": {"norad_id": 66633, "name": "STARLINK-35948", "group": "last-30-days", "lat": -11.732953795060016, "lon": -17.973588858610213, "alt_km": 449.72823021757176, "timestamp": "2025-12-19T22:41:51.095288+00:00", "meta": {"OBJECT_NAME": "STARLINK-35948", "OBJECT_ID": "2025-271S", "EPOCH": "2025-12-19T17:10:55.246080", "MEAN_MOTION": 15.39629537, "ECCENTRICITY": 0.0001044, "INCLINATION": 53.1596, "RA_OF_ASC_NODE": 154.1516, "ARG_OF_PERICENTER": 81.5844, "MEAN_ANOMALY": 278.5279, "EPHEMERIS_TYPE": 0, "CLASSIFICATION_TYPE": "U", "NORAD_CAT_ID": 66633, "ELEMENT_SET_NO": 999, "REV_AT_EPOCH": 528, "BSTAR": 0.00067904, "MEAN_MOTION_DOT": 0.00026866, "MEAN_MOTION_DDOT": 0}, "tle": {"line1": "1 66633U 25271S   25353.71591720  .00026866  00000+0  67904-3 0  9997", "line2": "2 66633  53.1596 154.1516 0001044  81.5844 278.5279 15.39629537  5282"}}, "geometry": {"type": "Point", "coordinates": [-17.973588858610213, -11.732953795060016]}}, {"type": "Feature", "properties": {"norad_id": 66634, "name": "STARLINK-35967", "group": "last-30-days", "lat": -31.257469233579727, "lon": 0.0866275541564044, "alt_km": 451.8697994785671, "timestamp": "2025-12-19T22:41:51.095298+00:00", "meta": {"OBJECT_NAME": "STARLINK-35967", "OBJECT_ID": "2025-271T", "EPOCH": "2025-12-19T18:00:00.998784", "MEAN_MOTION": 15.39613431, "ECCENTRICITY": 0.0001123, "INCLINATION": 53.1603, "RA_OF_ASC_NODE": 153.9398, "ARG_OF_PERICENTER": 60.4476, "MEAN_ANOMALY": 154.4908, "EPHEMERIS_TYPE": 0, "CLASSIFICATION_TYPE": "U", "NORAD_CAT_ID": 66634, "ELEMENT_SET_NO": 999, "REV_AT_EPOCH": 530, "BSTAR": 0.00035352, "MEAN_MOTION_DOT": 0.00013763, "MEAN_MOTION_DDOT": 0}, "tle": {"line1": "1 66634U 25271T   25353.75001156  .00013763  00000+0  35352-3 0  9995", "line2": "2 66634  53.1603 153.9398 0001123  60.4476 154.4908 15.39613431  5302"}}, "geometry": {"type": "Point", "coordinates": [0.0866275541564044, -31.257469233579727]}}, {"type": "Feature", "properties": {"norad_id": 66635, "name": "STARLINK-35955", "group": "last-30-days", "lat": -53.10046939260451, "lon": 66.00312982866333, "alt_km": 452.89062724936684, "timestamp": "2025-12-19T22:41:51.095308+00:00", "meta": {"OBJECT_NAME": "STARLINK-35955", "OBJECT_ID": "2025-271U", "EPOCH": "2025-12-19T18:00:00.998784", "MEAN_MOTION": 15.39609308, "ECCENTRICITY": 0.0001226, "INCLINATION": 53.1599, "RA_OF_ASC_NODE": 153.8387, "ARG_OF_PERICENTER": 78.9932, "MEAN_ANOMALY": 187.463, "EPHEMERIS_TYPE": 0, "CLASSIFICATION_TYPE": "U", "NORAD_CAT_ID": 66635, "ELEMENT_SET_NO": 999, "REV_AT_EPOCH": 537, "BSTAR": 0.00036433, "MEAN_MOTION_DOT": 0.00014195, "MEAN_MOTION_DDOT": 0}, "tle": {"line1": "1 66635U 25271U   25353.75001156  .00014195  00000+0  36433-3 0  9997", "line2": "2 66635  53.1599 153.8387 0001226  78.9932 187.4630 15.39609308  5372"}}, "geometry": {"type": "Point", "coordinates": [66.00312982866333, -53.10046939260451]}}, {"type": "Feature", "properties": {"norad_id": 66636, "name": "STARLINK-35968", "group": "last-30-days", "lat": -47.032805577132414, "lon": 26.565951692498306, "alt_km": 452.373716055512, "timestamp": "2025-12-19T22:41:51.095322+00:00", "meta": {"OBJECT_NAME": "STARLINK-35968", "OBJECT_ID": "2025-271V", "EPOCH": "2025-12-19T18:00:00.998784", "MEAN_MOTION": 15.39613469, "ECCENTRICITY": 7.2e-05, "INCLINATION": 53.1602, "RA_OF_ASC_NODE": 153.8888, "ARG_OF_PERICENTER": 73.746, "MEAN_ANOMALY": 166.9452, "EPHEMERIS_TYPE": 0, "CLASSIFICATION_TYPE": "U", "NORAD_CAT_ID": 66636, "ELEMENT_SET_NO": 999, "REV_AT_EPOCH": 537, "BSTAR": 0.00036483, "MEAN_MOTION_DOT": 0.00014218, "MEAN_MOTION_DDOT": 0}, "tle": {"line1": "1 66636U 25271V   25353.75001156  .00014218  00000+0  36483-3 0  9999", "line2": "2 66636  53.1602 153.8888 0000720  73.7460 166.9452 15.39613469  5378"}}, "geometry": {"type": "Point", "coordinates": [26.565951692498306, -47.032805577132414]}}, {"type": "Feature", "properties": {"norad_id": 66637, "name": "STARLINK-35953", "group": "last-30-days", "lat": -45.18316842488153, "lon": 103.87888101296208, "alt_km": 452.33797704221706, "timestamp": "2025-12-19T22:41:51.095333+00:00", "meta": {"OBJECT_NAME": "STARLINK-35953", "OBJECT_ID": "2025-271W", "EPOCH": "2025-12-19T18:00:00.998784", "MEAN_MOTION": 15.39611415, "ECCENTRICITY": 0.0001256, "INCLINATION": 53.1594, "RA_OF_ASC_NODE": 153.7867, "ARG_OF_PERICENTER": 63.0123, "MEAN_ANOMALY": 229.1973, "EPHEMERIS_TYPE": 0, "CLASSIFICATION_TYPE": "U", "NORAD_CAT_ID": 66637, "ELEMENT_SET_NO": 999, "REV_AT_EPOCH": 537, "BSTAR": 0.00027395, "MEAN_MOTION_DOT": 0.0001057, "MEAN_MOTION_DDOT": 0}, "tle": {"line1": "1 66637U 25271W   25353.75001156  .00010570  00000+0  27395-3 0  9999", "line2": "2 66637  53.1594 153.7867 0001256  63.0123 229.1973 15.39611415  5377"}}, "geometry": {"type": "Point", "coordinates": [103.87888101296208, -45.18316842488153]}}, {"type": "Feature", "properties": {"norad_id": 66638, "name": "STARLINK-35972", "group": "last-30-days", "lat": -8.832266780509343, "lon": 146.0722100473818, "alt_km": 448.2767110263003, "timestamp": "2025-12-19T22:41:51.095343+00:00", "meta": {"OBJECT_NAME": "STARLINK-35972", "OBJECT_ID": "2025-271X", "EPOCH": "2025-12-19T18:00:00.998784", "MEAN_MOTION": 15.4080964, "ECCENTRICITY": 0.0001487, "INCLINATION": 53.1592, "RA_OF_ASC_NODE": 153.6859, "ARG_OF_PERICENTER": 107.037, "MEAN_ANOMALY": 236.02, "EPHEMERIS_TYPE": 0, "CLASSIFICATION_TYPE": "U", "NORAD_CAT_ID": 66638, "ELEMENT_SET_NO": 999, "REV_AT_EPOCH": 537, "BSTAR": -0.044417, "MEAN_MOTION_DOT": -0.01651999, "MEAN_MOTION_DDOT": 0}, "tle": {"line1": "1 66638U 25271X   25353.75001156 -.01651999  00000+0 -44417-1 0  9991", "line2": "2 66638  53.1592 153.6859 0001487 107.0370 236.0200 15.40809640  5376"}}, "geometry": {"type": "Point", "coordinates": [146.0722100473818, -8.832266780509343]}}, {"type": "Feature", "properties": {"norad_id": 66639, "name": "STARLINK-35908", "group": "last-30-days", "lat": 13.851618666212019, "lon": 163.36293106709934, "alt_km": 405.9558501804486, "timestamp": "2025-12-19T22:41:51.095353+00:00", "meta": {"OBJECT_NAME": "STARLINK-35908", "OBJECT_ID": "2025-271Y", "EPOCH": "2025-12-19T14:52:27.357312", "MEAN_MOTION": 15.47746555, "ECCENTRICITY": 0.0025613, "INCLINATION": 53.1574, "RA_OF_ASC_NODE": 154.2642, "ARG_OF_PERICENTER": 38.7113, "MEAN_ANOMALY": 321.5725, "EPHEMERIS_TYPE": 0, "CLASSIFICATION_TYPE": "U", "NORAD_CAT_ID": 66639, "ELEMENT_SET_NO": 999, "REV_AT_EPOCH": 527, "BSTAR": 0.0017775, "MEAN_MOTION_DOT": 0.00095484, "MEAN_MOTION_DDOT": 0}, "tle": {"line1": "1 66639U 25271Y   25353.61976108  .00095484  00000+0  17775-2 0  9991", "line2": "2 66639  53.1574 154.2642 0025613  38.7113 321.5725 15.47746555  5279"}}, "geometry": {"type": "Point", "coordinates": [163.36293106709934, 13.851618666212019]}}]}